[{"OBJECT_NAME":"STARLINK-32171","OBJECT_ID":"2024-136D","EPOCH":"2026-03-09T08:03:21.976992","MEAN_MOTION":15.30184303,"ECCENTRICITY":0.00011037,"INCLINATION":53.1603,"RA_OF_ASC_NODE":77.0876,"ARG_OF_PERICENTER":99.5325,"MEAN_ANOMALY":260.5801,"EPHEMERIS_TYPE":0,"CLASSIFICATION_TYPE":"U","NORAD_CAT_ID":60332,"ELEMENT_SET_NO":999,"REV_AT_EPOCH":8961,"BSTAR":8.2380095e-5,"MEAN_MOTION_DOT":2.08e-5,"MEAN_MOTION_DDOT":0},{"OBJECT_NAME":"CZ-4C R\/B","OBJECT_ID":"2022-069B","EPOCH":"2026-03-09T22:08:25.149120","MEAN_MOTION":15.31915595,"ECCENTRICITY":0.00471341,"INCLINATION":97.9961,"RA_OF_ASC_NODE":42.6953,"ARG_OF_PERICENTER":87.2467,"MEAN_ANOMALY":273.4166,"EPHEMERIS_TYPE":0,"CLASSIFICATION_TYPE":"U","NORAD_CAT_ID":52913,"ELEMENT_SET_NO":999,"REV_AT_EPOCH":20482,"BSTAR":0.00043675127,"MEAN_MOTION_DOT":0.00013855,"MEAN_MOTION_DDOT":0}]
